{
    "links": {
        "self": "http://www.neowsapp.com/rest/v1/neo/3708944?api_key=iIulBulltgU6a56xZRHN4H3l9WmuAYTsLGpBGhQ2"
    },
    "id": "3708944",
    "neo_reference_id": "3708944",
    "name": "(2015 BK510)",
    "designation": "2015 BK510",
    "nasa_jpl_url": "http://ssd.jpl.nasa.gov/sbdb.cgi?sstr=3708944",
    "absolute_magnitude_h": 25.7,
    "estimated_diameter": {
        "kilometers": {
            "estimated_diameter_min": 0.0192555078,
            "estimated_diameter_max": 0.0430566244
        },
        "meters": {
            "estimated_diameter_min": 19.2555078188,
            "estimated_diameter_max": 43.0566244241
        },
        "miles": {
            "estimated_diameter_min": 0.0119648141,
            "estimated_diameter_max": 0.0267541378
        },
        "feet": {
            "estimated_diameter_min": 63.1742402722,
            "estimated_diameter_max": 141.2618956756
        }
    },
    "is_potentially_hazardous_asteroid": false,
    "close_approach_data": [
        {
            "close_approach_date": "2012-03-05",
            "close_approach_date_full": "2012-Mar-05 12:32",
            "epoch_date_close_approach": 1330950720000,
            "relative_velocity": {
                "kilometers_per_second": "10.8847824321",
                "kilometers_per_hour": "39185.216755637",
                "miles_per_hour": "24348.1698224124"
            },
            "miss_distance": {
                "astronomical": "0.0894354576",
                "lunar": "34.7903930064",
                "kilometers": "13379353.959435312",
                "miles": "8313545.0461868256"
            },
            "orbiting_body": "Mars"
        },
        {
            "close_approach_date": "2015-01-19",
            "close_approach_date_full": "2015-Jan-19 09:14",
            "epoch_date_close_approach": 1421658840000,
            "relative_velocity": {
                "kilometers_per_second": "17.2051650242",
                "kilometers_per_hour": "61938.5940870466",
                "miles_per_hour": "38486.2336425873"
            },
            "miss_distance": {
                "astronomical": "0.0183526682",
                "lunar": "7.1391879298",
                "kilometers": "2745520.071536734",
                "miles": "1705987.0647815692"
            },
            "orbiting_body": "Earth"
        }
    ],
    "orbital_data": {
        "orbit_id": "4",
        "orbit_determination_date": "2017-04-06 08:36:02",
        "first_observation_date": "2015-01-24",
        "last_observation_date": "2015-01-29",
        "data_arc_in_days": 5,
        "observations_used": 23,
        "orbit_uncertainty": "8",
        "minimum_orbit_intersection": ".0175585",
        "jupiter_tisserand_invariant": "4.710",
        "epoch_osculation": "2457047.5",
        "eccentricity": ".5600972892203364",
        "semi_major_axis": "1.343942531479406",
        "inclination": "5.158225846126977",
        "ascending_node_longitude": "130.3212700208646",
        "orbital_period": "569.0749568717569",
        "perihelion_distance": ".5912039627298741",
        "perihelion_argument": "251.9982826327714",
        "aphelion_distance": "2.096681100228938",
        "perihelion_time": "2456989.043315575585",
        "mean_anomaly": "36.98002545828393",
        "mean_motion": ".6326055920277077",
        "equinox": "J2000",
        "orbit_class": {
            "orbit_class_type": "APO",
            "orbit_class_description": "Near-Earth asteroid orbits which cross the Earth’s orbit similar to that of 1862 Apollo",
            "orbit_class_range": "a (semi-major axis) > 1.0 AU; q (perihelion) < 1.017 AU"
        }
    },
    "is_sentry_object": false
}